{"type": "FeatureCollection", "features": [{"type": "Feature", "properties": {"norad_id": 22490, "name": "SCD 1", "group": "resource", "lat": 13.183911030762589, "lon": 91.66267312039865, "alt_km": 756.84842456962, "timestamp": "2025-12-08T23:34:03.625822+00:00", "meta": {"OBJECT_NAME": "SCD 1", "OBJECT_ID": "1993-009B", "EPOCH": "2025-12-08T15:21:15.134400", "MEAN_MOTION": 14.45994939, "ECCENTRICITY": 0.00417249, "INCLINATION": 24.9705, "RA_OF_ASC_NODE": 303.9966, "ARG_OF_PERICENTER": 281.4311, "MEAN_ANOMALY": 241.0109, "EPHEMERIS_TYPE": 0, "CLASSIFICATION_TYPE": "U", "NORAD_CAT_ID": 22490, "ELEMENT_SET_NO": 999, "REV_AT_EPOCH": 73350, "BSTAR": 0.00019055094, "MEAN_MOTION_DOT": 8.83e-06, "MEAN_MOTION_DDOT": 0}, "tle": {"line1": "1 22490U 93009B   25342.63975850  .00000883  00000+0  19055-3 0  9998", "line2": "2 22490  24.9705 303.9966 0041724 281.4311 241.0109 14.45994939733502"}}, "geometry": {"type": "Point", "coordinates": [91.66267312039865, 13.183911030762589]}}, {"type": "Feature", "properties": {"norad_id": 25397, "name": "TECHSAT 1B (GO-32)", "group": "resource", "lat": -8.960193807875383, "lon": -32.462144301745596, "alt_km": 814.1063165770211, "timestamp": "2025-12-08T23:34:03.625862+00:00", "meta": {"OBJECT_NAME": "TECHSAT 1B (GO-32)", "OBJECT_ID": "1998-043D", "EPOCH": "2025-12-08T13:29:41.227872", "MEAN_MOTION": 14.24375404, "ECCENTRICITY": 0.00021596, "INCLINATION": 98.9915, "RA_OF_ASC_NODE": 325.678, "ARG_OF_PERICENTER": 63.912, "MEAN_ANOMALY": 296.228, "EPHEMERIS_TYPE": 0, "CLASSIFICATION_TYPE": "U", "NORAD_CAT_ID": 25397, "ELEMENT_SET_NO": 999, "REV_AT_EPOCH": 42419, "BSTAR": 0.00010994645, "MEAN_MOTION_DOT": 2.08e-06, "MEAN_MOTION_DDOT": 0}, "tle": {"line1": "1 25397U 98043D   25342.56228273  .00000208  00000+0  10995-3 0  9997", "line2": "2 25397  98.9915 325.6780 0002159  63.9120 296.2280 14.24375404424191"}}, "geometry": {"type": "Point", "coordinates": [-32.462144301745596, -8.960193807875383]}}, {"type": "Feature", "properties": {"norad_id": 25504, "name": "SCD 2", "group": "resource", "lat": -3.086519272443716, "lon": -8.28380449516764, "alt_km": 738.2258493589379, "timestamp": "2025-12-08T23:34:03.625877+00:00", "meta": {"OBJECT_NAME": "SCD 2", "OBJECT_ID": "1998-060A", "EPOCH": "2025-12-08T12:55:08.690592", "MEAN_MOTION": 14.45419994, "ECCENTRICITY": 0.00165885, "INCLINATION": 24.9931, "RA_OF_ASC_NODE": 167.8038, "ARG_OF_PERICENTER": 268.6442, "MEAN_ANOMALY": 125.3794, "EPHEMERIS_TYPE": 0, "CLASSIFICATION_TYPE": "U", "NORAD_CAT_ID": 25504, "ELEMENT_SET_NO": 999, "REV_AT_EPOCH": 43271, "BSTAR": 0.00013887878, "MEAN_MOTION_DOT": 6.8e-06, "MEAN_MOTION_DDOT": 0}, "tle": {"line1": "1 25504U 98060A   25342.53829503  .00000680  00000+0  13888-3 0  9994", "line2": "2 25504  24.9931 167.8038 0016588 268.6442 125.3794 14.45419994432717"}}, "geometry": {"type": "Point", "coordinates": [-8.28380449516764, -3.086519272443716]}}, {"type": "Feature", "properties": {"norad_id": 25757, "name": "DLR-TUBSAT", "group": "resource", "lat": -11.428971206828603, "lon": 145.61496846542295, "alt_km": 712.8432202744261, "timestamp": "2025-12-08T23:34:03.625890+00:00", "meta": {"OBJECT_NAME": "DLR-TUBSAT", "OBJECT_ID": "1999-029B", "EPOCH": "2025-12-08T12:46:03.957600", "MEAN_MOTION": 14.52355333, "ECCENTRICITY": 0.00136612, "INCLINATION": 98.6559, "RA_OF_ASC_NODE": 326.9159, "ARG_OF_PERICENTER": 205.9399, "MEAN_ANOMALY": 154.1112, "EPHEMERIS_TYPE": 0, "CLASSIFICATION_TYPE": "U", "NORAD_CAT_ID": 25757, "ELEMENT_SET_NO": 999, "REV_AT_EPOCH": 40557, "BSTAR": 8.6189874e-05, "MEAN_MOTION_DOT": 3.03e-06, "MEAN_MOTION_DDOT": 0}, "tle": {"line1": "1 25757U 99029B   25342.53199025  .00000303  00000+0  86190-4 0  9998", "line2": "2 25757  98.6559 326.9159 0013661 205.9399 154.1112 14.52355333405579"}}, "geometry": {"type": "Point", "coordinates": [145.61496846542295, -11.428971206828603]}}, {"type": "Feature", "properties": {"norad_id": 25994, "name": "TERRA", "group": "resource", "lat": 39.89722055974915, "lon": -138.46452327406536, "alt_km": 684.9799343333498, "timestamp": "2025-12-08T23:34:03.625903+00:00", "meta": {"OBJECT_NAME": "TERRA", "OBJECT_ID": "1999-068A", "EPOCH": "2025-12-08T15:14:35.943936", "MEAN_MOTION": 14.60946141, "ECCENTRICITY": 0.00035293, "INCLINATION": 97.9754, "RA_OF_ASC_NODE": 34.4702, "ARG_OF_PERICENTER": 106.0195, "MEAN_ANOMALY": 10.3787, "EPHEMERIS_TYPE": 0, "CLASSIFICATION_TYPE": "U", "NORAD_CAT_ID": 25994, "ELEMENT_SET_NO": 999, "REV_AT_EPOCH": 38178, "BSTAR": 0.0002175042, "MEAN_MOTION_DOT": 1.021e-05, "MEAN_MOTION_DDOT": 0}, "tle": {"line1": "1 25994U 99068A   25342.63513824  .00001021  00000+0  21750-3 0  9990", "line2": "2 25994  97.9754  34.4702 0003529 106.0195  10.3787 14.60946141381782"}}, "geometry": {"type": "Point", "coordinates": [-138.46452327406536, 39.89722055974915]}}, {"type": "Feature", "properties": {"norad_id": 27004, "name": "MAROC-TUBSAT", "group": "resource", "lat": -79.93023129128235, "lon": -132.1384534682107, "alt_km": 991.8830083413277, "timestamp": "2025-12-08T23:34:03.625916+00:00", "meta": {"OBJECT_NAME": "MAROC-TUBSAT", "OBJECT_ID": "2001-056D", "EPOCH": "2025-12-08T10:07:07.157568", "MEAN_MOTION": 13.70252579, "ECCENTRICITY": 0.00190852, "INCLINATION": 99.7912, "RA_OF_ASC_NODE": 150.791, "ARG_OF_PERICENTER": 271.6165, "MEAN_ANOMALY": 117.8718, "EPHEMERIS_TYPE": 0, "CLASSIFICATION_TYPE": "U", "NORAD_CAT_ID": 27004, "ELEMENT_SET_NO": 999, "REV_AT_EPOCH": 20006, "BSTAR": 4.1253752e-05, "MEAN_MOTION_DOT": -1e-07, "MEAN_MOTION_DDOT": 0}, "tle": {"line1": "1 27004U 01056D   25342.42161062 -.00000010  00000+0  41254-4 0  9994", "line2": "2 27004  99.7912 150.7910 0019085 271.6165 117.8718 13.70252579200068"}}, "geometry": {"type": "Point", "coordinates": [-132.1384534682107, -79.93023129128235]}}, {"type": "Feature", "properties": {"norad_id": 27424, "name": "AQUA", "group": "resource", "lat": 2.0671998273240826, "lon": -56.50564806020785, "alt_km": 690.3185049227313, "timestamp": "2025-12-08T23:34:03.625928+00:00", "meta": {"OBJECT_NAME": "AQUA", "OBJECT_ID": "2002-022A", "EPOCH": "2025-12-08T16:07:58.804032", "MEAN_MOTION": 14.61795515, "ECCENTRICITY": 9.368e-05, "INCLINATION": 98.4032, "RA_OF_ASC_NODE": 303.4853, "ARG_OF_PERICENTER": 113.8107, "MEAN_ANOMALY": 59.1753, "EPHEMERIS_TYPE": 0, "CLASSIFICATION_TYPE": "U", "NORAD_CAT_ID": 27424, "ELEMENT_SET_NO": 999, "REV_AT_EPOCH": 25543, "BSTAR": 0.0004446881, "MEAN_MOTION_DOT": 2.171e-05, "MEAN_MOTION_DDOT": 0}, "tle": {"line1": "1 27424U 02022A   25342.67220838  .00002171  00000+0  44469-3 0  9997", "line2": "2 27424  98.4032 303.4853 0000936 113.8107  59.1753 14.61795515255435"}}, "geometry": {"type": "Point", "coordinates": [-56.50564806020785, 2.0671998273240826]}}, {"type": "Feature", "properties": {"norad_id": 28051, "name": "IRS-P6 (RESOURCESAT-1)", "group": "resource", "lat": -34.28537224683343, "lon": -162.0915394281968, "alt_km": 735.4263060420226, "timestamp": "2025-12-08T23:34:03.625939+00:00", "meta": {"OBJECT_NAME": "IRS-P6 (RESOURCESAT-1)", "OBJECT_ID": "2003-046A", "EPOCH": "2025-12-08T14:44:52.456128", "MEAN_MOTION": 14.36072377, "ECCENTRICITY": 0.00639642, "INCLINATION": 98.2184, "RA_OF_ASC_NODE": 23.2127, "ARG_OF_PERICENTER": 193.0822, "MEAN_ANOMALY": 282.4536, "EPHEMERIS_TYPE": 0, "CLASSIFICATION_TYPE": "U", "NORAD_CAT_ID": 28051, "ELEMENT_SET_NO": 999, "REV_AT_EPOCH": 15317, "BSTAR": 0.00015143704, "MEAN_MOTION_DOT": 4.1e-06, "MEAN_MOTION_DDOT": 0}, "tle": {"line1": "1 28051U 03046A   25342.61449602  .00000410  00000+0  15144-3 0  9999", "line2": "2 28051  98.2184  23.2127 0063964 193.0822 282.4536 14.36072377153177"}}, "geometry": {"type": "Point", "coordinates": [-162.0915394281968, -34.28537224683343]}}, {"type": "Feature", "properties": {"norad_id": 28220, "name": "SHIYAN-1 (SY-1)", "group": "resource", "lat": -72.92488790057516, "lon": 71.1505649951051, "alt_km": 486.8065149320619, "timestamp": "2025-12-08T23:34:03.625951+00:00", "meta": {"OBJECT_NAME": "SHIYAN-1 (SY-1)", "OBJECT_ID": "2004-012A", "EPOCH": "2025-12-08T03:27:43.909344", "MEAN_MOTION": 15.27962186, "ECCENTRICITY": 0.00059298, "INCLINATION": 97.8934, "RA_OF_ASC_NODE": 43.4119, "ARG_OF_PERICENTER": 343.3198, "MEAN_ANOMALY": 16.7844, "EPHEMERIS_TYPE": 0, "CLASSIFICATION_TYPE": "U", "NORAD_CAT_ID": 28220, "ELEMENT_SET_NO": 999, "REV_AT_EPOCH": 18186, "BSTAR": 0.00060079939, "MEAN_MOTION_DOT": 0.00016338, "MEAN_MOTION_DDOT": 0}, "tle": {"line1": "1 28220U 04012A   25342.14425821  .00016338  00000+0  60080-3 0  9991", "line2": "2 28220  97.8934  43.4119 0005929 343.3198  16.7844 15.27962186181865"}}, "geometry": {"type": "Point", "coordinates": [71.1505649951051, -72.92488790057516]}}, {"type": "Feature", "properties": {"norad_id": 28376, "name": "AURA", "group": "resource", "lat": 34.2920067063491, "lon": 118.91707945881932, "alt_km": 687.4424773557012, "timestamp": "2025-12-08T23:34:03.625962+00:00", "meta": {"OBJECT_NAME": "AURA", "OBJECT_ID": "2004-026A", "EPOCH": "2025-12-08T14:41:11.647968", "MEAN_MOTION": 14.60932931, "ECCENTRICITY": 0.00011685, "INCLINATION": 98.3179, "RA_OF_ASC_NODE": 292.8195, "ARG_OF_PERICENTER": 93.2768, "MEAN_ANOMALY": 266.8566, "EPHEMERIS_TYPE": 0, "CLASSIFICATION_TYPE": "U", "NORAD_CAT_ID": 28376, "ELEMENT_SET_NO": 999, "REV_AT_EPOCH": 13838, "BSTAR": 0.00044553673, "MEAN_MOTION_DOT": 2.134e-05, "MEAN_MOTION_DDOT": 0}, "tle": {"line1": "1 28376U 04026A   25342.61194037  .00002134  00000+0  44554-3 0  9999", "line2": "2 28376  98.3179 292.8195 0001168  93.2768 266.8566 14.60932931138382"}}, "geometry": {"type": "Point", "coordinates": [118.91707945881932, 34.2920067063491]}}]}